OBJECT_NAME,OBJECT_ID,EPOCH,MEAN_MOTION,ECCENTRICITY,INCLINATION,RA_OF_ASC_NODE,ARG_OF_PERICENTER,MEAN_ANOMALY,EPHEMERIS_TYPE,CLASSIFICATION_TYPE,NORAD_CAT_ID,ELEMENT_SET_NO,REV_AT_EPOCH,BSTAR,MEAN_MOTION_DOT,MEAN_MOTION_DDOT
INTELSAT 35E (IS-35E),2017-041A,2026-06-17T16:13:37.428096,1.00266508,.00016834,0.0204,1.0645,79.9055,33.8532,0,U,42818,999,3282,0,0,0
COSMOS 2520,2017-046A,2026-06-16T18:21:44.924256,1.00265826,.0001704,0.0460,92.2751,8.0174,125.1632,0,U,42907,999,3239,0,.135E-5,0
TDRS 13,2017-047A,2026-06-18T04:18:45.950400,1.00271620,.00145164,3.4520,2.7749,106.3871,210.5142,0,U,42915,999,3235,0,-.107E-5,0
QZS-3 (MICHIBIKI-3),2017-048A,2026-06-18T06:40:56.483328,1.00275509,.0001886,0.0687,167.5045,275.0977,51.1342,0,U,42917,999,3227,0,-.354E-5,0
AMAZONAS 5,2017-053A,2026-06-16T17:51:20.187360,1.00271034,.00020623,0.0299,328.6552,58.1833,84.9962,0,U,42934,999,3204,0,-.285E-5,0
ASIASAT 9,2017-057A,2026-06-16T18:43:38.033184,1.00264039,.00024955,0.0420,48.7885,27.1098,232.2103,0,U,42942,999,3185,0,0,0
INTELSAT 37E (IS-37E),2017-059A,2026-06-18T04:16:53.630400,1.00269247,.00025608,0.0209,11.6778,100.5457,200.4430,0,U,42950,999,3207,0,0,0
BSAT-4A,2017-059B,2026-06-18T06:36:04.448736,1.00270902,.00040138,0.0507,38.7090,28.8983,47.7573,0,U,42951,999,3181,0,-.356E-5,0
QZS-4 (MICHIBIKI-4),2017-062A,2026-06-17T08:26:54.936672,1.00250243,.07451045,40.1076,343.4792,271.7859,274.0161,0,U,42965,999,3180,0,-.355E-5,0
SES-11 (ECHOSTAR 105),2017-063A,2026-06-18T07:15:35.759808,1.00270818,.00027383,0.0148,350.4074,82.0315,198.0510,0,U,42967,999,3173,0,-.95E-6,0
KOREASAT 5A,2017-067A,2026-06-18T06:36:41.889312,1.00270387,.00006392,0.0211,302.3482,128.2885,48.1999,0,U,42984,999,3154,0,-.364E-5,0
ALCOMSAT 1,2017-078A,2026-06-18T04:14:53.821248,1.00269212,.00022911,0.0296,266.2294,168.8117,230.2848,0,U,43039,999,3130,0,-.192E-5,0
SBIRS GEO-3 (USA 282),2018-009A,2026-06-18T07:14:29.808960,1.00271835,.00018744,2.1853,12.1837,65.5799,137.9998,0,U,43162,999,3085,0,.121E-5,0
AL YAH 3,2018-012A,2026-06-18T04:16:16.189824,1.00269824,.0003935,1.5553,83.0957,1.9041,225.3617,0,U,43174,999,3085,0,-.162E-5,0
SES-14,2018-012B,2026-06-16T17:55:19.803936,1.00269888,.00008096,0.0216,33.3553,49.1617,43.8189,0,U,43175,999,702,0,-.281E-5,0
GOES 17,2018-022A,2026-06-18T03:15:26.771328,1.00269610,.000047,0.9404,85.6927,29.6875,110.3425,0,U,43226,999,3043,0,-.188E-5,0
HISPASAT 30W-6,2018-023A,2026-06-16T18:00:19.325088,1.00269755,.00056852,0.0464,45.0638,25.5389,74.4852,0,U,43228,999,3040,0,-.219E-5,0
SUPERBIRD-B3,2018-033A,2026-06-18T06:50:55.524768,1.00271683,.00009675,0.0142,10.9420,70.7040,89.6174,0,U,43271,999,3007,0,-.98E-6,0
HYLAS 4,2018-033B,2026-06-16T23:07:18.865056,1.00267492,.0001178,0.0157,26.2092,66.6667,125.6670,0,U,43272,999,3006,0,-.237E-5,0
IRNSS-1I,2018-035A,2026-06-15T20:09:20.172384,1.00272046,.00178117,28.7520,74.2167,181.5598,5.5147,0,U,43286,999,3006,0,.62E-6,0
USA 283,2018-036A,2026-06-15T11:59:15.199008,1.00267801,.0000468,0.0182,1.8047,172.3670,43.5385,0,U,43339,999,2527,0,0,0
COSMOS 2526,2018-037A,2026-06-18T08:23:56.187168,1.00269927,.000046,0.0297,76.1544,151.3203,293.1659,0,U,43432,999,2997,0,-.351E-5,0
APSTAR-6C,2018-041A,2026-06-17T20:26:58.911936,1.00268661,.0000917,0.0269,17.8003,325.0673,3.9650,0,U,43450,999,2981,0,-.324E-5,0
BANGABANDHUSAT-1,2018-044A,2026-06-18T06:38:41.697600,1.00269267,.00016721,0.0300,85.0368,358.9205,41.3210,0,U,43463,999,2972,0,-.368E-5,0
SES-12,2018-049A,2026-06-18T03:06:28.033632,1.00270325,.00008005,0.0142,18.9294,274.4498,114.6095,0,U,43488,999,2942,0,-.275E-5,0
FENGYUN 2H,2018-050A,2026-06-18T03:01:58.464768,1.00269466,.00019689,3.0340,79.0570,138.8523,173.3522,0,U,43491,999,2944,0,-.137E-5,0
BEIDOU-2 IGSO-7,2018-057A,2026-06-17T22:02:12.630336,1.00251228,.01051574,55.1940,163.0508,238.0681,305.4943,0,U,43539,999,2913,0,-.4E-6,0
TELSTAR 19V,2018-059A,2026-06-17T11:40:38.561088,1.00269474,.0002446,0.0186,169.5740,306.2270,262.0928,0,U,43562,999,2914,0,-.284E-5,0
TELKOM 4 (MERAH PUTIH),2018-064A,2026-06-17T10:03:35.340192,1.00270209,.00012605,0.0179,320.0897,159.7510,44.7212,0,U,43587,999,2888,0,-.348E-5,0
TELSTAR 18V,2018-069A,2026-06-17T15:50:45.189600,1.00271325,.00018111,0.0137,303.0509,134.9315,203.6070,0,U,43611,999,2864,0,-.299E-5,0
AZERSPACE 2 (IS-38),2018-074A,2026-06-18T04:34:51.906720,1.00271278,.0001276,0.0181,9.7156,79.0776,291.4569,0,U,43632,999,2845,0,.131E-5,0
HORIZONS-3E,2018-074B,2026-06-17T17:11:37.263264,1.00270832,.00008695,0.0021,233.5565,40.2741,59.0407,0,U,43633,999,2834,0,-.36E-6,0
