INTELSAT 35E (IS-35E)   
1 42818U 17041A   26168.67612764  .00000000  00000+0  00000+0 0  9996
2 42818   0.0204   1.0645 0001683  79.9055  33.8532  1.00266508 32827
COSMOS 2520             
1 42907U 17046A   26167.76510329  .00000135  00000+0  00000+0 0  9992
2 42907   0.0460  92.2751 0001704   8.0174 125.1632  1.00265826 32399
TDRS 13                 
1 42915U 17047A   26169.17969850 -.00000107  00000+0  00000+0 0  9996
2 42915   3.4520   2.7749 0014516 106.3871 210.5142  1.00271620 32356
QZS-3 (MICHIBIKI-3)     
1 42917U 17048A   26169.27843152 -.00000354  00000+0  00000+0 0  9990
2 42917   0.0687 167.5045 0001886 275.0977  51.1342  1.00275509 32273
AMAZONAS 5              
1 42934U 17053A   26167.74398365 -.00000285  00000+0  00000+0 0  9999
2 42934   0.0299 328.6552 0002062  58.1833  84.9962  1.00271034 32048
ASIASAT 9               
1 42942U 17057A   26167.78030131  .00000000  00000+0  00000+0 0  9994
2 42942   0.0420  48.7885 0002495  27.1098 232.2103  1.00264039 31851
INTELSAT 37E (IS-37E)   
1 42950U 17059A   26169.17839850  .00000000  00000+0  00000+0 0  9995
2 42950   0.0209  11.6778 0002560 100.5457 200.4430  1.00269247 32074
BSAT-4A                 
1 42951U 17059B   26169.27505149 -.00000356  00000+0  00000+0 0  9993
2 42951   0.0507  38.7090 0004013  28.8983  47.7573  1.00270902 31815
QZS-4 (MICHIBIKI-4)     
1 42965U 17062A   26168.35202473 -.00000355  00000+0  00000+0 0  9993
2 42965  40.1076 343.4792 0745104 271.7859 274.0161  1.00250243 31808
SES-11 (ECHOSTAR 105)   
1 42967U 17063A   26169.30249722 -.00000095  00000+0  00000+0 0  9991
2 42967   0.0148 350.4074 0002738  82.0315 198.0510  1.00270818 31730
KOREASAT 5A             
1 42984U 17067A   26169.27548483 -.00000364  00000+0  00000+0 0  9995
2 42984   0.0211 302.3482 0000639 128.2885  48.1999  1.00270387 31548
ALCOMSAT 1              
1 43039U 17078A   26169.17701182 -.00000192  00000+0  00000+0 0  9994
2 43039   0.0296 266.2294 0002291 168.8117 230.2848  1.00269212 31302
SBIRS GEO-3 (USA 282)   
1 43162U 18009A   26169.30173390  .00000121  00000+0  00000+0 0  9996
2 43162   2.1853  12.1837 0001874  65.5799 137.9998  1.00271835 30859
AL YAH 3                
1 43174U 18012A   26169.17796516 -.00000162  00000+0  00000+0 0  9995
2 43174   1.5553  83.0957 0003935   1.9041 225.3617  1.00269824 30851
SES-14                  
1 43175U 18012B   26167.74675699 -.00000281  00000+0  00000+0 0  9997
2 43175   0.0216  33.3553 0000809  49.1617  43.8189  1.00269888  7022
GOES 17                 
1 43226U 18022A   26169.13572652 -.00000188  00000+0  00000+0 0  9991
2 43226   0.9404  85.6927 0000470  29.6875 110.3425  1.00269610 30432
HISPASAT 30W-6          
1 43228U 18023A   26167.75022367 -.00000219  00000+0  00000+0 0  9998
2 43228   0.0464  45.0638 0005685  25.5389  74.4852  1.00269755 30409
SUPERBIRD-B3            
1 43271U 18033A   26169.28536487 -.00000098  00000+0  00000+0 0  9995
2 43271   0.0142  10.9420 0000967  70.7040  89.6174  1.00271683 30075
HYLAS 4                 
1 43272U 18033B   26167.96341279 -.00000237  00000+0  00000+0 0  9997
2 43272   0.0157  26.2092 0001178  66.6667 125.6670  1.00267492 30065
IRNSS-1I                
1 43286U 18035A   26166.83981681  .00000062  00000+0  00000+0 0  9991
2 43286  28.7520  74.2167 0017811 181.5598   5.5147  1.00272046 30064
USA 283                 
1 43339U 18036A   26166.49948147  .00000000  00000+0  00000+0 0  9995
2 43339   0.0182   1.8047 0000468 172.3670  43.5385  1.00267801 25278
COSMOS 2526             
1 43432U 18037A   26169.34995587 -.00000351  00000+0  00000+0 0  9997
2 43432   0.0297  76.1544 0000460 151.3203 293.1659  1.00269927 29976
APSTAR-6C               
1 43450U 18041A   26168.85207074 -.00000324  00000+0  00000+0 0  9994
2 43450   0.0269  17.8003 0000917 325.0673   3.9650  1.00268661 29810
BANGABANDHUSAT-1        
1 43463U 18044A   26169.27687150 -.00000368  00000+0  00000+0 0  9993
2 43463   0.0300  85.0368 0001672 358.9205  41.3210  1.00269267 29727
SES-12                  
1 43488U 18049A   26169.12949113 -.00000275  00000+0  00000+0 0  9996
2 43488   0.0142  18.9294 0000800 274.4498 114.6095  1.00270325 29428
FENGYUN 2H              
1 43491U 18050A   26169.12637112 -.00000137  00000+0  00000+0 0  9992
2 43491   3.0340  79.0570 0001968 138.8523 173.3522  1.00269466 29441
BEIDOU-2 IGSO-7         
1 43539U 18057A   26168.91820174 -.00000040  00000+0  00000+0 0  9993
2 43539  55.1940 163.0508 0105157 238.0681 305.4943  1.00251228 29134
TELSTAR 19V             
1 43562U 18059A   26168.48655742 -.00000284  00000+0  00000+0 0  9990
2 43562   0.0186 169.5740 0002446 306.2270 262.0928  1.00269474 29143
TELKOM 4 (MERAH PUTIH)  
1 43587U 18064A   26168.41915903 -.00000348  00000+0  00000+0 0  9995
2 43587   0.0179 320.0897 0001260 159.7510  44.7212  1.00270209 28889
TELSTAR 18V             
1 43611U 18069A   26168.66024525 -.00000299  00000+0  00000+0 0  9991
2 43611   0.0137 303.0509 0001811 134.9315 203.6070  1.00271325 28644
AZERSPACE 2 (IS-38)     
1 43632U 18074A   26169.19087855  .00000131  00000+0  00000+0 0  9998
2 43632   0.0181   9.7156 0001276  79.0776 291.4569  1.00271278 28453
HORIZONS-3E             
1 43633U 18074B   26168.71640351 -.00000036  00000+0  00000+0 0  9997
2 43633   0.0021 233.5565 0000869  40.2741  59.0407  1.00270832 28349
